ONEWEB-0710             
1 55173U 23004AK  23028.82508559  .00003439  00000+0  33796-3 0  9996
2 55173  86.5120 277.5299 0015443 152.3794 207.8257 14.91764869  2923
ONEWEB-0711             
1 55174U 23004AL  23029.25001157 -.00710017  00000+0 -10380+0 0  9996
2 55174  86.6094 277.4414 0010293 145.3634  64.7875 14.78454165  2977
ONEWEB-0713             
1 55175U 23004AM  23029.00001157 -.00631599  00000+0 -91453-1 0  9999
2 55175  86.6086 277.5548 0010437 143.1676 163.0224 14.78563781  2943
ONEWEB-0715             
1 55176U 23004AN  23029.33334491 -.00699957  00000+0 -10099+0 0  9993
2 55176  86.6098 277.4120 0010268 145.2628 163.1324 14.78972097  2984
ONEWEB-0716             
1 55177U 23004AP  23028.82873941  .00003734  00000+0  37006-3 0  9996
2 55177  86.5116 277.5358 0013969 149.2109 210.9941 14.91469049  2921
ONEWEB-0717             
1 55178U 23004AQ  23029.23943391  .00003239  00000+0  32600-3 0  9995
2 55178  86.5086 277.3539 0011124 146.8183 213.3744 14.90828897  2986
ONEWEB-0719             
1 55179U 23004AR  23029.50352651  .00003055  00000+0  30453-3 0  9999
2 55179  86.5100 277.2345 0012871 144.5594 215.6492 14.91174434  3022
SJ-23 AKM               
1 55180U 23002C   23028.90327168 -.00000230  00000+0  00000+0 0  9991
2 55180   0.5320  95.1377 0001594 268.7567 203.4572  0.99357806   126
SS-1                    
1 55181U 98067UY  23029.19978499  .00065631  00000+0  98828-3 0  9990
2 55181  51.6403 296.6068 0004183 248.0324 112.0223 15.54183260  3556
HSKSAT                  
1 55182U 98067UZ  23029.20384453  .00045495  00000+0  71104-3 0  9998
2 55182  51.6404 296.6340 0003507 242.2635 117.8000 15.53318109  3569
OPTIMAL-1               
1 55183U 98067VA  23029.14213363  .00043374  00000+0  68722-3 0  9999
2 55183  51.6417 296.9722 0003794 350.0946   9.9969 15.52959532  3556
APSTAR 6E               
1 55239U 23005A   23029.68587660  .00000013  00000+0  00000+0 0  9998
2 55239  28.4905 332.4377 2587029 145.6445 319.9199  7.81855342  1819
CZ-2D R/B               
1 55240U 23005B   23028.01429206  .00002276 -72062-5  00000+0 0  9994
2 55240  28.4994 272.6672 0145269 289.1198 201.4156 15.94091821  2428
2023-006A               
1 55242U 23006A   23029.57335648  .00022078  00000+0  10912-2 0  9999
2 55242  43.2021 116.1183 0009113  18.3753 175.1401 15.17427312  2479
2023-006B               
1 55243U 23006B   23029.63191255  .00010129  00000+0  51307-3 0  9999
2 55243  43.2017 115.8180 0008517  17.4817 125.6427 15.17071954  2482
2023-006C               
1 55244U 23006C   23029.58318287  .00009317  00000+0  48243-3 0  9992
2 55244  43.2011 116.1818 0005961   4.0921 193.8608 15.16386442  2429
2023-006D               
1 55245U 23006D   23029.57802083  .00029281  00000+0  14496-2 0  9998
2 55245  43.2009 116.1376 0006649  10.0255 189.3807 15.17257281  2438
2023-007A               
1 55248U 23007A   23029.45925926  .00015829  00000+0  64496-3 0  9990
2 55248  97.3765 103.6918 0008797 185.2019   6.8751 15.24518015  2188
2023-007B               
1 55249U 23007B   23029.44339127  .00017598  00000+0  70831-3 0  9997
2 55249  97.3777 103.6867 0008502 195.7573 288.0784 15.24909820  2177
2023-007C               
1 55250U 23007C   23029.57499541  .00024598  00000+0  97563-3 0  9999
2 55250  97.3745 103.8168 0007749 200.7769 301.2175 15.25336822  2197
2023-007D               
1 55251U 23007D   23029.64319648  .00023904  00000+0  94665-3 0  9997
2 55251  97.3803 103.8972 0008197 204.0854 315.4046 15.25391404  2209
2023-007E               
1 55252U 23007E   23029.30138605 -.00000070  00000+0  00000+0 0  9999
2 55252  97.3727 103.5367 0009524 214.2972 216.2152 15.23306095  2159
2023-007F               
1 55253U 23007F   23029.64277313  .00016595  00000+0  65935-3 0  9997
2 55253  97.3754 103.8874 0008051 209.6344 312.0270 15.25358716  2202
2023-007G               
1 55254U 23007G   23029.56798228  .00017738  00000+0  70251-3 0  9999
2 55254  97.3783 103.8225 0007914 210.7905 264.3922 15.25452858  2191
2023-007H               
1 55255U 23007H   23029.43360219  .00030948  00000+0  11971-2 0  9992
2 55255  97.3717 103.6865 0008246 222.5590 259.4222 15.26123719  2175
2023-007J               
1 55256U 23007J   23029.23096163  .00023074  00000+0  89997-3 0  9991
2 55256  97.3758 103.4924 0007821 223.7257 221.5394 15.25909580  2140
2023-007K               
1 55257U 23007K   23029.56470528  .00011544  00000+0  45566-3 0  9992
2 55257  97.3741 103.8171 0007721 225.8543 247.3962 15.25667985  2193
2023-007L               
1 55258U 23007L   23029.63762326  .00014768  00000+0  57863-3 0  9995
2 55258  97.3757 103.8951 0007340 228.0824 292.4731 15.25856430  2203
2023-007M               
1 55259U 23007M   23029.63521157  .00013283  00000+0  51673-3 0  9995
2 55259  97.3710 103.8895 0007735 235.7045 286.4401 15.26116771  2203
2023-007N               
1 55260U 23007N   23029.62853795  .00019338  00000+0  73261-3 0  9996
2 55260  97.3725 103.9002 0007904 257.8100 264.3978 15.26915316  2203
2023-007P               
1 55261U 23007P   23029.22034019  .00016697  00000+0  63236-3 0  9999
2 55261  97.3720 103.4979 0008658 262.8425 181.8883 15.26950451  2140
USA 342                 
1 55263U 23008A   23027.74773682  .00000010  00000+0  00000+0 0  9991
2 55263   0.0554  31.1616 0001977 240.6176 315.2053  1.02190215   117
NAVSTAR 82 (USA 343)    
1 55268U 23009A   23019.56958773  .00000203  00000+0  00000+0 0  9998
2 55268  55.0137 201.7698 5934866 270.2550  26.1276  4.03893074    40
STARLINK-5277           
1 55269U 23010A   23029.00001157 -.00825981  00000+0 -35442-2 0  9997
2 55269  70.0002  42.6453 0008243 241.1341 239.1165 15.86632121  1985
STARLINK-5301           
1 55270U 23010B   23029.00001157 -.00826109  00000+0 -35494-2 0  9999
2 55270  70.0002  42.6456 0008381 246.3784 233.0654 15.86602874  1989
STARLINK-5306           
1 55271U 23010C   23029.00001157 -.00825773  00000+0 -35450-2 0  9998
2 55271  70.0000  42.6455 0008217 240.4687 239.5035 15.86622500  1984
STARLINK-5310           
1 55272U 23010D   23029.00001157 -.00826275  00000+0 -35495-2 0  9996
2 55272  70.0002  42.6464 0008340 244.6575 234.0357 15.86607612  1980
STARLINK-5291           
1 55273U 23010E   23029.00001157 -.00826163  00000+0 -35418-2 0  9998
2 55273  70.0001  42.6442 0008371 245.6372 235.2710 15.86648121  1982
STARLINK-5236           
1 55274U 23010F   23028.91667824 -.00849800  00000+0 -36221-2 0  9993
2 55274  70.0000  42.8834 0008350 238.6736 126.6506 15.86819217  1300
STARLINK-5260           
1 55275U 23010G   23029.00001157 -.00826253  00000+0 -35388-2 0  9996
2 55275  70.0001  42.6434 0008418 247.0750 234.4001 15.86666781  1989
STARLINK-5261           
1 55276U 23010H   23028.91667824 -.00850437  00000+0 -36178-2 0  9994
2 55276  69.9999  42.8819 0008497 244.1321 122.3157 15.86856820  1309
STARLINK-5299           
1 55277U 23010J   23028.91667824 -.00845531  00000+0 -35990-2 0  9995
2 55277  69.9998  42.8832 0008446 243.7115 122.1601 15.86835230  1308
STARLINK-5289           
1 55278U 23010K   23029.00001157 -.00825730  00000+0 -35273-2 0  9991
2 55278  70.0001  42.6408 0008257 242.9159 240.2570 15.86722243  1983
STARLINK-5323           
1 55279U 23010L   23028.91667824 -.00855897  00000+0 -36443-2 0  9997
2 55279  70.0000  42.8830 0008469 244.0222 122.1409 15.86851453  1304
STARLINK-5331           
1 55280U 23010M   23028.91667824 -.00846118  00000+0 -35921-2 0  9995
2 55280  69.9996  42.8804 0008451 242.1203 125.4928 15.86889432  1307
STARLINK-5298           
1 55281U 23010N   23028.91667824 -.00846421  00000+0 -35981-2 0  9999
2 55281  69.9999  42.8820 0008506 245.2078 121.5492 15.86862360  1308
STARLINK-5330           
1 55282U 23010P   23029.00001157 -.00825666  00000+0 -35207-2 0  9991
2 55282  70.0001  42.6392 0008318 244.1355 240.2351 15.86757307  1986
STARLINK-5317           
1 55283U 23010Q   23029.00001157 -.00825818  00000+0 -35294-2 0  9997
2 55283  70.0001  42.6416 0008300 245.3690 237.5650 15.86711635  1985
STARLINK-5337           
1 55284U 23010R   23029.00001157 -.00825047  00000+0 -35150-2 0  9993
2 55284  70.0000  42.6388 0008341 245.2126 239.8007 15.86773117  1985
STARLINK-5332           
1 55285U 23010S   23029.00001157 -.00900854  24087-3 -32144-2 0  9999
2 55285  70.0001  42.5752 0008249 221.2290 317.0460 15.88595046  1992
STARLINK-5338           
1 55286U 23010T   23029.00001157 -.00825605  00000+0 -35186-2 0  9994
2 55286  70.0001  42.6388 0008367 242.8199 241.8245 15.86766759  1980
STARLINK-5341           
1 55287U 23010U   23029.00001157 -.00825452  00000+0 -35217-2 0  9990
2 55287  70.0002  42.6400 0008228 240.7968 243.3000 15.86747676  1987
STARLINK-5311           
1 55288U 23010V   23029.00001157 -.00825701  00000+0 -35064-2 0  9998
2 55288  70.0001  42.6362 0008409 246.6590 240.3073 15.86838945  1988
STARLINK-5320           
1 55289U 23010W   23029.00001157 -.00825424  00000+0 -35129-2 0  9993
2 55289  70.0001  42.6381 0008428 247.7085 237.8133 15.86793543  1984
STARLINK-5266           
1 55290U 23010X   23029.00001157 -.00824830  00000+0 -35072-2 0  9992
2 55290  69.9999  42.6372 0008380 246.6417 239.4463 15.86811564  1981
STARLINK-5327           
1 55291U 23010Y   23029.00001157 -.00825284  00000+0 -35110-2 0  9990
2 55291  70.0001  42.6374 0008313 244.7369 241.0524 15.86803168  1980
STARLINK-5325           
1 55292U 23010Z   23029.00001157 -.00825303  00000+0 -35029-2 0  9992
2 55292  70.0000  42.6357 0008442 247.7585 239.4948 15.86847832  1984
STARLINK-5287           
1 55293U 23010AA  23029.00001157 -.00825240  00000+0 -35061-2 0  9999
2 55293  69.9999  42.6368 0008321 244.6279 242.0335 15.86830151  1989
STARLINK-5286           
1 55294U 23010AB  23029.00001157 -.00825092  00000+0 -35209-2 0  9999
2 55294  69.9999  42.6399 0008253 243.4490 240.2311 15.86742080  1987
